[{"OBJECT_NAME":"ONEWEB-0445","OBJECT_ID":"2022-012T","EPOCH":"2023-11-20T11:04:58.001088","MEAN_MOTION":13.10374754,"ECCENTRICITY":0.0001957,"INCLINATION":87.8924,"RA_OF_ASC_NODE":222.8917,"ARG_OF_PERICENTER":80.4887,"MEAN_ANOMALY":279.6461,"EPHEMERIS_TYPE":0,"CLASSIFICATION_TYPE":"U","NORAD_CAT_ID":51639,"ELEMENT_SET_NO":999,"REV_AT_EPOCH":8755,"BSTAR":-0.00024904,"MEAN_MOTION_DOT":-7.4e-7,"MEAN_MOTION_DDOT":0},{"OBJECT_NAME":"ONEWEB-0446","OBJECT_ID":"2022-012U","EPOCH":"2023-11-20T10:32:11.968224","MEAN_MOTION":13.10371627,"ECCENTRICITY":0.0001602,"INCLINATION":87.893,"RA_OF_ASC_NODE":222.9019,"ARG_OF_PERICENTER":79.7105,"MEAN_ANOMALY":280.4203,"EPHEMERIS_TYPE":0,"CLASSIFICATION_TYPE":"U","NORAD_CAT_ID":51640,"ELEMENT_SET_NO":999,"REV_AT_EPOCH":8625,"BSTAR":-0.0013637,"MEAN_MOTION_DOT":-4.63e-6,"MEAN_MOTION_DDOT":0},{"OBJECT_NAME":"ONEWEB-0448","OBJECT_ID":"2022-012V","EPOCH":"2023-11-20T10:39:12.413952","MEAN_MOTION":13.10373184,"ECCENTRICITY":0.0001584,"INCLINATION":87.893,"RA_OF_ASC_NODE":222.9024,"ARG_OF_PERICENTER":64.904,"MEAN_ANOMALY":295.2252,"EPHEMERIS_TYPE":0,"CLASSIFICATION_TYPE":"U","NORAD_CAT_ID":51641,"ELEMENT_SET_NO":999,"REV_AT_EPOCH":8751,"BSTAR":-0.0018692,"MEAN_MOTION_DOT":-6.4e-6,"MEAN_MOTION_DDOT":0},{"OBJECT_NAME":"ONEWEB-0449","OBJECT_ID":"2022-012W","EPOCH":"2023-11-20T10:46:12.762048","MEAN_MOTION":13.1037406,"ECCENTRICITY":0.0001908,"INCLINATION":87.8935,"RA_OF_ASC_NODE":222.9054,"ARG_OF_PERICENTER":69.2074,"MEAN_ANOMALY":290.9257,"EPHEMERIS_TYPE":0,"CLASSIFICATION_TYPE":"U","NORAD_CAT_ID":51642,"ELEMENT_SET_NO":999,"REV_AT_EPOCH":8623,"BSTAR":-0.0024453,"MEAN_MOTION_DOT":-8.41e-6,"MEAN_MOTION_DDOT":0},{"OBJECT_NAME":"ONEWEB-0451","OBJECT_ID":"2022-012X","EPOCH":"2023-11-20T13:47:09.763584","MEAN_MOTION":13.17651155,"ECCENTRICITY":0.0001604,"INCLINATION":87.9227,"RA_OF_ASC_NODE":192.638,"ARG_OF_PERICENTER":69.1001,"MEAN_ANOMALY":291.0302,"EPHEMERIS_TYPE":0,"CLASSIFICATION_TYPE":"U","NORAD_CAT_ID":51643,"ELEMENT_SET_NO":999,"REV_AT_EPOCH":8992,"BSTAR":0.00011834,"MEAN_MOTION_DOT":5.9e-7,"MEAN_MOTION_DDOT":0},{"OBJECT_NAME":"ONEWEB-0452","OBJECT_ID":"2022-012Y","EPOCH":"2023-11-20T13:44:07.311840","MEAN_MOTION":13.17650809,"ECCENTRICITY":0.000217,"INCLINATION":87.9236,"RA_OF_ASC_NODE":192.6647,"ARG_OF_PERICENTER":64.8647,"MEAN_ANOMALY":295.2709,"EPHEMERIS_TYPE":0,"CLASSIFICATION_TYPE":"U","NORAD_CAT_ID":51644,"ELEMENT_SET_NO":999,"REV_AT_EPOCH":8993,"BSTAR":-0.00068246,"MEAN_MOTION_DOT":-2.52e-6,"MEAN_MOTION_DDOT":0},{"OBJECT_NAME":"ONEWEB-0455","OBJECT_ID":"2022-012Z","EPOCH":"2023-11-20T14:12:10.686240","MEAN_MOTION":14.22642894,"ECCENTRICITY":0.0015462,"INCLINATION":87.5367,"RA_OF_ASC_NODE":176.8454,"ARG_OF_PERICENTER":311.2448,"MEAN_ANOMALY":48.741,"EPHEMERIS_TYPE":0,"CLASSIFICATION_TYPE":"U","NORAD_CAT_ID":51645,"ELEMENT_SET_NO":999,"REV_AT_EPOCH":9250,"BSTAR":0.00011975,"MEAN_MOTION_DOT":2.85e-6,"MEAN_MOTION_DDOT":0},{"OBJECT_NAME":"ONEWEB-0456","OBJECT_ID":"2022-012AA","EPOCH":"2023-11-20T11:00:15.769440","MEAN_MOTION":13.10377638,"ECCENTRICITY":0.0001245,"INCLINATION":87.8927,"RA_OF_ASC_NODE":222.8849,"ARG_OF_PERICENTER":73.2274,"MEAN_ANOMALY":286.899,"EPHEMERIS_TYPE":0,"CLASSIFICATION_TYPE":"U","NORAD_CAT_ID":51646,"ELEMENT_SET_NO":999,"REV_AT_EPOCH":8756,"BSTAR":-0.00070277,"MEAN_MOTION_DOT":-2.33e-6,"MEAN_MOTION_DDOT":0},{"OBJECT_NAME":"ONEWEB-0457","OBJECT_ID":"2022-012AB","EPOCH":"2023-11-20T10:27:30.379392","MEAN_MOTION":13.10369031,"ECCENTRICITY":0.0002053,"INCLINATION":87.8927,"RA_OF_ASC_NODE":222.8936,"ARG_OF_PERICENTER":73.3284,"MEAN_ANOMALY":286.8069,"EPHEMERIS_TYPE":0,"CLASSIFICATION_TYPE":"U","NORAD_CAT_ID":51647,"ELEMENT_SET_NO":999,"REV_AT_EPOCH":8627,"BSTAR":-0.0011361,"MEAN_MOTION_DOT":-3.84e-6,"MEAN_MOTION_DDOT":0},{"OBJECT_NAME":"ONEWEB-0458","OBJECT_ID":"2022-012AC","EPOCH":"2023-11-20T10:57:54.688608","MEAN_MOTION":13.10369987,"ECCENTRICITY":0.0001645,"INCLINATION":87.8933,"RA_OF_ASC_NODE":222.9024,"ARG_OF_PERICENTER":63.6849,"MEAN_ANOMALY":296.4448,"EPHEMERIS_TYPE":0,"CLASSIFICATION_TYPE":"U","NORAD_CAT_ID":51648,"ELEMENT_SET_NO":999,"REV_AT_EPOCH":8753,"BSTAR":-0.00092214,"MEAN_MOTION_DOT":-3.09e-6,"MEAN_MOTION_DDOT":0},{"OBJECT_NAME":"ONEWEB-0461","OBJECT_ID":"2022-012AD","EPOCH":"2023-11-20T14:14:31.336800","MEAN_MOTION":13.17647141,"ECCENTRICITY":0.0001788,"INCLINATION":87.9226,"RA_OF_ASC_NODE":192.6383,"ARG_OF_PERICENTER":76.835,"MEAN_ANOMALY":283.2981,"EPHEMERIS_TYPE":0,"CLASSIFICATION_TYPE":"U","NORAD_CAT_ID":51649,"ELEMENT_SET_NO":999,"REV_AT_EPOCH":9015,"BSTAR":-0.00021562,"MEAN_MOTION_DOT":-7.1e-7,"MEAN_MOTION_DDOT":0},{"OBJECT_NAME":"ONEWEB-0463","OBJECT_ID":"2022-012AE","EPOCH":"2023-11-20T13:50:11.424768","MEAN_MOTION":13.17650489,"ECCENTRICITY":0.0001704,"INCLINATION":87.9233,"RA_OF_ASC_NODE":192.6785,"ARG_OF_PERICENTER":79.2406,"MEAN_ANOMALY":280.8917,"EPHEMERIS_TYPE":0,"CLASSIFICATION_TYPE":"U","NORAD_CAT_ID":51650,"ELEMENT_SET_NO":999,"REV_AT_EPOCH":8993,"BSTAR":-4.0505e-6,"MEAN_MOTION_DOT":1.1e-7,"MEAN_MOTION_DDOT":0},{"OBJECT_NAME":"ONEWEB-0464","OBJECT_ID":"2022-012AF","EPOCH":"2023-11-20T05:23:21.739488","MEAN_MOTION":13.10371545,"ECCENTRICITY":0.0001213,"INCLINATION":87.8935,"RA_OF_ASC_NODE":222.937,"ARG_OF_PERICENTER":67.9222,"MEAN_ANOMALY":292.2034,"EPHEMERIS_TYPE":0,"CLASSIFICATION_TYPE":"U","NORAD_CAT_ID":51651,"ELEMENT_SET_NO":999,"REV_AT_EPOCH":8622,"BSTAR":-0.00094382,"MEAN_MOTION_DOT":-3.17e-6,"MEAN_MOTION_DDOT":0},{"OBJECT_NAME":"ONEWEB-0468","OBJECT_ID":"2022-012AG","EPOCH":"2023-11-20T11:02:35.957760","MEAN_MOTION":13.10376757,"ECCENTRICITY":0.0001618,"INCLINATION":87.8933,"RA_OF_ASC_NODE":222.8834,"ARG_OF_PERICENTER":67.9615,"MEAN_ANOMALY":292.1684,"EPHEMERIS_TYPE":0,"CLASSIFICATION_TYPE":"U","NORAD_CAT_ID":51652,"ELEMENT_SET_NO":999,"REV_AT_EPOCH":8623,"BSTAR":-0.00061303,"MEAN_MOTION_DOT":-2.01e-6,"MEAN_MOTION_DDOT":0},{"OBJECT_NAME":"ONEWEB-0473","OBJECT_ID":"2022-012AH","EPOCH":"2023-11-20T10:41:32.108064","MEAN_MOTION":13.10369614,"ECCENTRICITY":0.0001546,"INCLINATION":87.8931,"RA_OF_ASC_NODE":222.8899,"ARG_OF_PERICENTER":66.0017,"MEAN_ANOMALY":294.1272,"EPHEMERIS_TYPE":0,"CLASSIFICATION_TYPE":"U","NORAD_CAT_ID":51653,"ELEMENT_SET_NO":999,"REV_AT_EPOCH":8753,"BSTAR":-0.0021434,"MEAN_MOTION_DOT":-7.35e-6,"MEAN_MOTION_DDOT":0},{"OBJECT_NAME":"ONEWEB-0474","OBJECT_ID":"2022-012AJ","EPOCH":"2023-11-20T10:29:50.396640","MEAN_MOTION":13.10372339,"ECCENTRICITY":0.0001406,"INCLINATION":87.9002,"RA_OF_ASC_NODE":222.9009,"ARG_OF_PERICENTER":62.4378,"MEAN_ANOMALY":297.6892,"EPHEMERIS_TYPE":0,"CLASSIFICATION_TYPE":"U","NORAD_CAT_ID":51654,"ELEMENT_SET_NO":999,"REV_AT_EPOCH":8751,"BSTAR":-0.0015787,"MEAN_MOTION_DOT":-5.38e-6,"MEAN_MOTION_DDOT":0},{"OBJECT_NAME":"ONEWEB-0475","OBJECT_ID":"2022-012AK","EPOCH":"2023-11-20T14:05:23.229888","MEAN_MOTION":13.1764953,"ECCENTRICITY":0.0001444,"INCLINATION":87.9236,"RA_OF_ASC_NODE":192.6546,"ARG_OF_PERICENTER":60.106,"MEAN_ANOMALY":300.0214,"EPHEMERIS_TYPE":0,"CLASSIFICATION_TYPE":"U","NORAD_CAT_ID":51655,"ELEMENT_SET_NO":999,"REV_AT_EPOCH":8995,"BSTAR":2.8081e-5,"MEAN_MOTION_DOT":2.4e-7,"MEAN_MOTION_DDOT":0},{"OBJECT_NAME":"EOS-4","OBJECT_ID":"2022-013A","EPOCH":"2023-11-20T14:28:15.868416","MEAN_MOTION":15.12731477,"ECCENTRICITY":0.0002119,"INCLINATION":97.5167,"RA_OF_ASC_NODE":329.4407,"ARG_OF_PERICENTER":97.7506,"MEAN_ANOMALY":262.3965,"EPHEMERIS_TYPE":0,"CLASSIFICATION_TYPE":"U","NORAD_CAT_ID":51656,"ELEMENT_SET_NO":999,"REV_AT_EPOCH":9744,"BSTAR":0.00012287,"MEAN_MOTION_DOT":2.088e-5,"MEAN_MOTION_DDOT":0},{"OBJECT_NAME":"INSPIRESAT-1","OBJECT_ID":"2022-013B","EPOCH":"2023-11-20T13:22:49.631232","MEAN_MOTION":15.20883956,"ECCENTRICITY":0.0009762,"INCLINATION":97.5441,"RA_OF_ASC_NODE":335.6154,"ARG_OF_PERICENTER":173.8701,"MEAN_ANOMALY":186.2655,"EPHEMERIS_TYPE":0,"CLASSIFICATION_TYPE":"U","NORAD_CAT_ID":51657,"ELEMENT_SET_NO":999,"REV_AT_EPOCH":9765,"BSTAR":0.00027883,"MEAN_MOTION_DOT":6.099e-5,"MEAN_MOTION_DDOT":0},{"OBJECT_NAME":"INS-2TD","OBJECT_ID":"2022-013C","EPOCH":"2023-11-20T13:31:33.350880","MEAN_MOTION":15.29035665,"ECCENTRICITY":0.0008288,"INCLINATION":97.541,"RA_OF_ASC_NODE":338.0938,"ARG_OF_PERICENTER":161.4091,"MEAN_ANOMALY":198.7453,"EPHEMERIS_TYPE":0,"CLASSIFICATION_TYPE":"U","NORAD_CAT_ID":51658,"ELEMENT_SET_NO":999,"REV_AT_EPOCH":9782,"BSTAR":0.0006096,"MEAN_MOTION_DOT":0.00017147,"MEAN_MOTION_DDOT":0},{"OBJECT_NAME":"STARLINK-3528","OBJECT_ID":"2022-016A","EPOCH":"2023-11-20T11:47:52.308096","MEAN_MOTION":15.08840404,"ECCENTRICITY":0.0001316,"INCLINATION":53.2153,"RA_OF_ASC_NODE":140.9145,"ARG_OF_PERICENTER":94.6509,"MEAN_ANOMALY":265.4633,"EPHEMERIS_TYPE":0,"CLASSIFICATION_TYPE":"U","NORAD_CAT_ID":51714,"ELEMENT_SET_NO":999,"REV_AT_EPOCH":9658,"BSTAR":6.9738e-5,"MEAN_MOTION_DOT":8.22e-6,"MEAN_MOTION_DDOT":0},{"OBJECT_NAME":"STARLINK-3533","OBJECT_ID":"2022-016B","EPOCH":"2023-11-20T11:33:21.301056","MEAN_MOTION":15.08840575,"ECCENTRICITY":0.0001394,"INCLINATION":53.2157,"RA_OF_ASC_NODE":140.9716,"ARG_OF_PERICENTER":89.0362,"MEAN_ANOMALY":271.079,"EPHEMERIS_TYPE":0,"CLASSIFICATION_TYPE":"U","NORAD_CAT_ID":51715,"ELEMENT_SET_NO":999,"REV_AT_EPOCH":9771,"BSTAR":0.00011508,"MEAN_MOTION_DOT":1.544e-5,"MEAN_MOTION_DDOT":0},{"OBJECT_NAME":"STARLINK-3543","OBJECT_ID":"2022-016C","EPOCH":"2023-11-20T11:42:34.710336","MEAN_MOTION":15.0884556,"ECCENTRICITY":0.0001352,"INCLINATION":53.2163,"RA_OF_ASC_NODE":140.9312,"ARG_OF_PERICENTER":87.4331,"MEAN_ANOMALY":272.6816,"EPHEMERIS_TYPE":0,"CLASSIFICATION_TYPE":"U","NORAD_CAT_ID":51716,"ELEMENT_SET_NO":999,"REV_AT_EPOCH":9658,"BSTAR":0.0001459,"MEAN_MOTION_DOT":2.035e-5,"MEAN_MOTION_DDOT":0},{"OBJECT_NAME":"STARLINK-3445","OBJECT_ID":"2022-016D","EPOCH":"2023-11-20T11:49:15.919968","MEAN_MOTION":15.08841275,"ECCENTRICITY":0.0001353,"INCLINATION":53.2158,"RA_OF_ASC_NODE":140.9992,"ARG_OF_PERICENTER":88.0065,"MEAN_ANOMALY":272.1082,"EPHEMERIS_TYPE":0,"CLASSIFICATION_TYPE":"U","NORAD_CAT_ID":51717,"ELEMENT_SET_NO":999,"REV_AT_EPOCH":9658,"BSTAR":7.5011e-5,"MEAN_MOTION_DOT":9.06e-6,"MEAN_MOTION_DDOT":0}]
